[{"OBJECT_NAME":"STARLINK-6290","OBJECT_ID":"2023-099A","EPOCH":"2026-03-09T13:30:49.248864","MEAN_MOTION":15.02535354,"ECCENTRICITY":0.00015527,"INCLINATION":43.0031,"RA_OF_ASC_NODE":249.9992,"ARG_OF_PERICENTER":274.8014,"MEAN_ANOMALY":85.2651,"EPHEMERIS_TYPE":0,"CLASSIFICATION_TYPE":"U","NORAD_CAT_ID":57328,"ELEMENT_SET_NO":999,"REV_AT_EPOCH":14700,"BSTAR":-1.9158735e-5,"MEAN_MOTION_DOT":-4.62e-6,"MEAN_MOTION_DDOT":0},{"OBJECT_NAME":"HELIOS 1A","OBJECT_ID":"1995-033A","EPOCH":"2026-03-09T15:20:38.403168","MEAN_MOTION":15.05208405,"ECCENTRICITY":0.0012543,"INCLINATION":98.2085,"RA_OF_ASC_NODE":312.7113,"ARG_OF_PERICENTER":11.1866,"MEAN_ANOMALY":348.9636,"EPHEMERIS_TYPE":0,"CLASSIFICATION_TYPE":"U","NORAD_CAT_ID":23605,"ELEMENT_SET_NO":999,"REV_AT_EPOCH":65318,"BSTAR":0.00025897,"MEAN_MOTION_DOT":3.631e-5,"MEAN_MOTION_DDOT":0}]
